[{"OBJECT_NAME":"STARLINK-36981","OBJECT_ID":"2026-049G","EPOCH":"2026-03-28T05:00:30.510144","MEAN_MOTION":15.80871461,"ECCENTRICITY":0.00015003,"INCLINATION":97.284,"RA_OF_ASC_NODE":107.3685,"ARG_OF_PERICENTER":113.4742,"MEAN_ANOMALY":246.6684,"EPHEMERIS_TYPE":0,"CLASSIFICATION_TYPE":"U","NORAD_CAT_ID":68148,"ELEMENT_SET_NO":999,"REV_AT_EPOCH":233,"BSTAR":0.00048501803,"MEAN_MOTION_DOT":0.00094008,"MEAN_MOTION_DDOT":0},{"OBJECT_NAME":"STARLINK-36992","OBJECT_ID":"2026-049H","EPOCH":"2026-03-28T04:59:25.460448","MEAN_MOTION":15.80954471,"ECCENTRICITY":0.00011564,"INCLINATION":97.2839,"RA_OF_ASC_NODE":107.3697,"ARG_OF_PERICENTER":94.2843,"MEAN_ANOMALY":265.8557,"EPHEMERIS_TYPE":0,"CLASSIFICATION_TYPE":"U","NORAD_CAT_ID":68149,"ELEMENT_SET_NO":999,"REV_AT_EPOCH":233,"BSTAR":0.0015618362,"MEAN_MOTION_DOT":0.0031194,"MEAN_MOTION_DDOT":0},{"OBJECT_NAME":"STARLINK-37060","OBJECT_ID":"2026-049J","EPOCH":"2026-03-28T04:00:01.999584","MEAN_MOTION":15.80845687,"ECCENTRICITY":0.00013768,"INCLINATION":97.2841,"RA_OF_ASC_NODE":107.3284,"ARG_OF_PERICENTER":96.9064,"MEAN_ANOMALY":32.933,"EPHEMERIS_TYPE":0,"CLASSIFICATION_TYPE":"U","NORAD_CAT_ID":68150,"ELEMENT_SET_NO":999,"REV_AT_EPOCH":359,"BSTAR":-0.00025050949,"MEAN_MOTION_DOT":-0.00047929,"MEAN_MOTION_DDOT":0},{"OBJECT_NAME":"STARLINK-37073","OBJECT_ID":"2026-049K","EPOCH":"2026-03-28T04:00:01.999584","MEAN_MOTION":15.80870125,"ECCENTRICITY":0.00013055,"INCLINATION":97.2841,"RA_OF_ASC_NODE":107.33,"ARG_OF_PERICENTER":91.9776,"MEAN_ANOMALY":42.1204,"EPHEMERIS_TYPE":0,"CLASSIFICATION_TYPE":"U","NORAD_CAT_ID":68151,"ELEMENT_SET_NO":999,"REV_AT_EPOCH":359,"BSTAR":-0.00039385564,"MEAN_MOTION_DOT":-0.00075124,"MEAN_MOTION_DDOT":0},{"OBJECT_NAME":"STARLINK-37049","OBJECT_ID":"2026-049L","EPOCH":"2026-03-28T04:00:01.999584","MEAN_MOTION":15.80867716,"ECCENTRICITY":0.0001393,"INCLINATION":97.2842,"RA_OF_ASC_NODE":107.3322,"ARG_OF_PERICENTER":90.5224,"MEAN_ANOMALY":47.8443,"EPHEMERIS_TYPE":0,"CLASSIFICATION_TYPE":"U","NORAD_CAT_ID":68152,"ELEMENT_SET_NO":999,"REV_AT_EPOCH":359,"BSTAR":-0.00042829672,"MEAN_MOTION_DOT":-0.00081612,"MEAN_MOTION_DDOT":0},{"OBJECT_NAME":"STARLINK-37072","OBJECT_ID":"2026-049M","EPOCH":"2026-03-28T04:00:01.999584","MEAN_MOTION":15.80848206,"ECCENTRICITY":0.00012371,"INCLINATION":97.2842,"RA_OF_ASC_NODE":107.3336,"ARG_OF_PERICENTER":99.6075,"MEAN_ANOMALY":43.0447,"EPHEMERIS_TYPE":0,"CLASSIFICATION_TYPE":"U","NORAD_CAT_ID":68153,"ELEMENT_SET_NO":999,"REV_AT_EPOCH":359,"BSTAR":-0.00027513123,"MEAN_MOTION_DOT":-0.00052603,"MEAN_MOTION_DDOT":0},{"OBJECT_NAME":"STARLINK-36241","OBJECT_ID":"2026-049N","EPOCH":"2026-03-28T04:00:01.999584","MEAN_MOTION":15.75235405,"ECCENTRICITY":0.00013726,"INCLINATION":97.2839,"RA_OF_ASC_NODE":107.3256,"ARG_OF_PERICENTER":86.1746,"MEAN_ANOMALY":38.3187,"EPHEMERIS_TYPE":0,"CLASSIFICATION_TYPE":"U","NORAD_CAT_ID":68154,"ELEMENT_SET_NO":999,"REV_AT_EPOCH":360,"BSTAR":-0.00063330929,"MEAN_MOTION_DOT":-0.00093747,"MEAN_MOTION_DDOT":0},{"OBJECT_NAME":"STARLINK-37048","OBJECT_ID":"2026-049P","EPOCH":"2026-03-28T04:00:01.999584","MEAN_MOTION":15.80880011,"ECCENTRICITY":0.00012326,"INCLINATION":97.284,"RA_OF_ASC_NODE":107.3398,"ARG_OF_PERICENTER":92.7544,"MEAN_ANOMALY":66.9908,"EPHEMERIS_TYPE":0,"CLASSIFICATION_TYPE":"U","NORAD_CAT_ID":68155,"ELEMENT_SET_NO":999,"REV_AT_EPOCH":359,"BSTAR":-0.00087797832,"MEAN_MOTION_DOT":-0.0016565,"MEAN_MOTION_DDOT":0},{"OBJECT_NAME":"STARLINK-36313","OBJECT_ID":"2026-049Q","EPOCH":"2026-03-28T04:00:01.999584","MEAN_MOTION":15.80853608,"ECCENTRICITY":0.0001127,"INCLINATION":97.2843,"RA_OF_ASC_NODE":107.3378,"ARG_OF_PERICENTER":92.9677,"MEAN_ANOMALY":62.5076,"EPHEMERIS_TYPE":0,"CLASSIFICATION_TYPE":"U","NORAD_CAT_ID":68156,"ELEMENT_SET_NO":999,"REV_AT_EPOCH":360,"BSTAR":-0.00042816319,"MEAN_MOTION_DOT":-0.00081532,"MEAN_MOTION_DDOT":0},{"OBJECT_NAME":"STARLINK-37064","OBJECT_ID":"2026-049R","EPOCH":"2026-03-28T04:00:01.999584","MEAN_MOTION":15.80865251,"ECCENTRICITY":9.576e-5,"INCLINATION":97.2844,"RA_OF_ASC_NODE":107.3348,"ARG_OF_PERICENTER":110.2935,"MEAN_ANOMALY":36.6257,"EPHEMERIS_TYPE":0,"CLASSIFICATION_TYPE":"U","NORAD_CAT_ID":68157,"ELEMENT_SET_NO":999,"REV_AT_EPOCH":359,"BSTAR":-0.00031499237,"MEAN_MOTION_DOT":-0.00060196,"MEAN_MOTION_DDOT":0},{"OBJECT_NAME":"STARLINK-37069","OBJECT_ID":"2026-049S","EPOCH":"2026-03-28T04:00:01.999584","MEAN_MOTION":15.75273151,"ECCENTRICITY":0.00010443,"INCLINATION":97.2838,"RA_OF_ASC_NODE":107.3344,"ARG_OF_PERICENTER":89.9743,"MEAN_ANOMALY":54.4853,"EPHEMERIS_TYPE":0,"CLASSIFICATION_TYPE":"U","NORAD_CAT_ID":68158,"ELEMENT_SET_NO":999,"REV_AT_EPOCH":359,"BSTAR":-0.0011151074,"MEAN_MOTION_DOT":-0.0016389,"MEAN_MOTION_DDOT":0},{"OBJECT_NAME":"STARLINK-37053","OBJECT_ID":"2026-049T","EPOCH":"2026-03-28T04:00:01.999584","MEAN_MOTION":15.80865626,"ECCENTRICITY":0.00010198,"INCLINATION":97.2843,"RA_OF_ASC_NODE":107.3453,"ARG_OF_PERICENTER":89.4234,"MEAN_ANOMALY":83.1405,"EPHEMERIS_TYPE":0,"CLASSIFICATION_TYPE":"U","NORAD_CAT_ID":68159,"ELEMENT_SET_NO":999,"REV_AT_EPOCH":359,"BSTAR":-0.00037037749,"MEAN_MOTION_DOT":-0.00070673,"MEAN_MOTION_DDOT":0},{"OBJECT_NAME":"STARLINK-36306","OBJECT_ID":"2026-049U","EPOCH":"2026-03-28T04:00:01.999584","MEAN_MOTION":15.75522921,"ECCENTRICITY":0.00013087,"INCLINATION":97.2837,"RA_OF_ASC_NODE":107.3431,"ARG_OF_PERICENTER":60.0038,"MEAN_ANOMALY":106.343,"EPHEMERIS_TYPE":0,"CLASSIFICATION_TYPE":"U","NORAD_CAT_ID":68160,"ELEMENT_SET_NO":999,"REV_AT_EPOCH":360,"BSTAR":-0.0040800999,"MEAN_MOTION_DOT":-0.00577625,"MEAN_MOTION_DDOT":0},{"OBJECT_NAME":"STARLINK-37057","OBJECT_ID":"2026-049V","EPOCH":"2026-03-28T04:00:01.999584","MEAN_MOTION":15.80989188,"ECCENTRICITY":0.00012336,"INCLINATION":97.2841,"RA_OF_ASC_NODE":107.3413,"ARG_OF_PERICENTER":106.4048,"MEAN_ANOMALY":57.5149,"EPHEMERIS_TYPE":0,"CLASSIFICATION_TYPE":"U","NORAD_CAT_ID":68161,"ELEMENT_SET_NO":999,"REV_AT_EPOCH":359,"BSTAR":-0.0012716579,"MEAN_MOTION_DOT":-0.00239067,"MEAN_MOTION_DDOT":0},{"OBJECT_NAME":"STARLINK-37013","OBJECT_ID":"2026-049W","EPOCH":"2026-03-28T04:00:01.999584","MEAN_MOTION":15.8088892,"ECCENTRICITY":0.00010983,"INCLINATION":97.2843,"RA_OF_ASC_NODE":107.3534,"ARG_OF_PERICENTER":87.2345,"MEAN_ANOMALY":106.7012,"EPHEMERIS_TYPE":0,"CLASSIFICATION_TYPE":"U","NORAD_CAT_ID":68162,"ELEMENT_SET_NO":999,"REV_AT_EPOCH":359,"BSTAR":-0.00080552714,"MEAN_MOTION_DOT":-0.00152282,"MEAN_MOTION_DDOT":0},{"OBJECT_NAME":"STARLINK-36958","OBJECT_ID":"2026-049X","EPOCH":"2026-03-28T04:00:01.999584","MEAN_MOTION":15.80856532,"ECCENTRICITY":0.00013023,"INCLINATION":97.2847,"RA_OF_ASC_NODE":107.352,"ARG_OF_PERICENTER":77.9736,"MEAN_ANOMALY":107.4197,"EPHEMERIS_TYPE":0,"CLASSIFICATION_TYPE":"U","NORAD_CAT_ID":68163,"ELEMENT_SET_NO":999,"REV_AT_EPOCH":359,"BSTAR":-0.00028427822,"MEAN_MOTION_DOT":-0.00054357,"MEAN_MOTION_DDOT":0}]
