STARLINK-36981          
1 68148U 26049G   26087.20868646  .00094008  00000+0  48502-3 0  9993
2 68148  97.2840 107.3685 0001500 113.4742 246.6684 15.80871461  2332
STARLINK-36992          
1 68149U 26049H   26087.20793357  .00311940  00000+0  15618-2 0  9998
2 68149  97.2839 107.3697 0001156  94.2843 265.8557 15.80954471  2334
STARLINK-37060          
1 68150U 26049J   26087.16668981 -.00047929  00000+0 -25051-3 0  9997
2 68150  97.2841 107.3284 0001376  96.9064  32.9330 15.80845687  3598
STARLINK-37073          
1 68151U 26049K   26087.16668981 -.00075124  00000+0 -39386-3 0  9992
2 68151  97.2841 107.3300 0001305  91.9776  42.1204 15.80870125  3593
STARLINK-37049          
1 68152U 26049L   26087.16668981 -.00081612  00000+0 -42830-3 0  9990
2 68152  97.2842 107.3322 0001393  90.5224  47.8443 15.80867716  3598
STARLINK-37072          
1 68153U 26049M   26087.16668981 -.00052603  00000+0 -27513-3 0  9990
2 68153  97.2842 107.3336 0001237  99.6075  43.0447 15.80848206  3590
STARLINK-36241          
1 68154U 26049N   26087.16668981 -.00093747  00000+0 -63331-3 0  9993
2 68154  97.2839 107.3256 0001372  86.1746  38.3187 15.75235405  3609
STARLINK-37048          
1 68155U 26049P   26087.16668981 -.00165650  00000+0 -87798-3 0  9990
2 68155  97.2840 107.3398 0001232  92.7544  66.9908 15.80880011  3594
STARLINK-36313          
1 68156U 26049Q   26087.16668981 -.00081532  00000+0 -42816-3 0  9999
2 68156  97.2843 107.3378 0001127  92.9677  62.5076 15.80853608  3600
STARLINK-37064          
1 68157U 26049R   26087.16668981 -.00060196  00000+0 -31499-3 0  9998
2 68157  97.2844 107.3348 0000957 110.2935  36.6257 15.80865251  3598
STARLINK-37069          
1 68158U 26049S   26087.16668981 -.00163890  00000+0 -11151-2 0  9996
2 68158  97.2838 107.3344 0001044  89.9743  54.4853 15.75273151  3591
STARLINK-37053          
1 68159U 26049T   26087.16668981 -.00070673  00000+0 -37038-3 0  9996
2 68159  97.2843 107.3453 0001019  89.4234  83.1405 15.80865626  3593
STARLINK-36306          
1 68160U 26049U   26087.16668981 -.00577625  00000+0 -40801-2 0  9998
2 68160  97.2837 107.3431 0001308  60.0038 106.3430 15.75522921  3602
STARLINK-37057          
1 68161U 26049V   26087.16668981 -.00239067  00000+0 -12717-2 0  9999
2 68161  97.2841 107.3413 0001233 106.4048  57.5149 15.80989188  3591
STARLINK-37013          
1 68162U 26049W   26087.16668981 -.00152282  00000+0 -80553-3 0  9997
2 68162  97.2843 107.3534 0001098  87.2345 106.7012 15.80888920  3591
STARLINK-36958          
1 68163U 26049X   26087.16668981 -.00054357  00000+0 -28428-3 0  9995
2 68163  97.2847 107.3520 0001302  77.9736 107.4197 15.80856532  3595
